<?xml version="1.0" encoding="UTF-8"?>
<ndm xmlns:xsi="http://www.w3.org/2001/XMLSchema-instance" xsi:noNamespaceSchemaLocation="https://sanaregistry.org/r/ndmxml_unqualified/ndmxml-2.0.0-master-2.0.xsd">
<omm id="CCSDS_OMM_VERS" version="2.0">
<header><CREATION_DATE/><ORIGINATOR/></header><body><segment><metadata><OBJECT_NAME>ORBCOMM FM05 [-]</OBJECT_NAME><OBJECT_ID>1997-084F</OBJECT_ID><CENTER_NAME>EARTH</CENTER_NAME><REF_FRAME>TEME</REF_FRAME><TIME_SYSTEM>UTC</TIME_SYSTEM><MEAN_ELEMENT_THEORY>SGP4</MEAN_ELEMENT_THEORY></metadata><data><meanElements><EPOCH>2023-10-19T07:29:59.270784</EPOCH><MEAN_MOTION>14.41575153</MEAN_MOTION><ECCENTRICITY>.0000874</ECCENTRICITY><INCLINATION>45.0170</INCLINATION><RA_OF_ASC_NODE>31.0074</RA_OF_ASC_NODE><ARG_OF_PERICENTER>77.2377</ARG_OF_PERICENTER><MEAN_ANOMALY>282.8571</MEAN_ANOMALY></meanElements><tleParameters><EPHEMERIS_TYPE>0</EPHEMERIS_TYPE><CLASSIFICATION_TYPE>U</CLASSIFICATION_TYPE><NORAD_CAT_ID>25117</NORAD_CAT_ID><ELEMENT_SET_NO>999</ELEMENT_SET_NO><REV_AT_EPOCH>35291</REV_AT_EPOCH><BSTAR>.10282E-2</BSTAR><MEAN_MOTION_DOT>.3233E-4</MEAN_MOTION_DOT><MEAN_MOTION_DDOT>0</MEAN_MOTION_DDOT></tleParameters></data></segment></body></omm>
<omm id="CCSDS_OMM_VERS" version="2.0">
<header><CREATION_DATE/><ORIGINATOR/></header><body><segment><metadata><OBJECT_NAME>ORBCOMM FM06 [+]</OBJECT_NAME><OBJECT_ID>1997-084G</OBJECT_ID><CENTER_NAME>EARTH</CENTER_NAME><REF_FRAME>TEME</REF_FRAME><TIME_SYSTEM>UTC</TIME_SYSTEM><MEAN_ELEMENT_THEORY>SGP4</MEAN_ELEMENT_THEORY></metadata><data><meanElements><EPOCH>2023-10-19T10:21:43.974144</EPOCH><MEAN_MOTION>14.41521820</MEAN_MOTION><ECCENTRICITY>.0000737</ECCENTRICITY><INCLINATION>45.0164</INCLINATION><RA_OF_ASC_NODE>30.5989</RA_OF_ASC_NODE><ARG_OF_PERICENTER>153.9834</ARG_OF_PERICENTER><MEAN_ANOMALY>328.3956</MEAN_ANOMALY></meanElements><tleParameters><EPHEMERIS_TYPE>0</EPHEMERIS_TYPE><CLASSIFICATION_TYPE>U</CLASSIFICATION_TYPE><NORAD_CAT_ID>25118</NORAD_CAT_ID><ELEMENT_SET_NO>999</ELEMENT_SET_NO><REV_AT_EPOCH>35384</REV_AT_EPOCH><BSTAR>.11698E-2</BSTAR><MEAN_MOTION_DOT>.3694E-4</MEAN_MOTION_DOT><MEAN_MOTION_DDOT>0</MEAN_MOTION_DDOT></tleParameters></data></segment></body></omm>
<omm id="CCSDS_OMM_VERS" version="2.0">
<header><CREATION_DATE/><ORIGINATOR/></header><body><segment><metadata><OBJECT_NAME>ORBCOMM FM07 [-]</OBJECT_NAME><OBJECT_ID>1997-084H</OBJECT_ID><CENTER_NAME>EARTH</CENTER_NAME><REF_FRAME>TEME</REF_FRAME><TIME_SYSTEM>UTC</TIME_SYSTEM><MEAN_ELEMENT_THEORY>SGP4</MEAN_ELEMENT_THEORY></metadata><data><meanElements><EPOCH>2023-10-19T07:41:52.545984</EPOCH><MEAN_MOTION>14.41465586</MEAN_MOTION><ECCENTRICITY>.0001342</ECCENTRICITY><INCLINATION>45.0161</INCLINATION><RA_OF_ASC_NODE>31.5681</RA_OF_ASC_NODE><ARG_OF_PERICENTER>36.4357</ARG_OF_PERICENTER><MEAN_ANOMALY>323.6584</MEAN_ANOMALY></meanElements><tleParameters><EPHEMERIS_TYPE>0</EPHEMERIS_TYPE><CLASSIFICATION_TYPE>U</CLASSIFICATION_TYPE><NORAD_CAT_ID>25119</NORAD_CAT_ID><ELEMENT_SET_NO>999</ELEMENT_SET_NO><REV_AT_EPOCH>35382</REV_AT_EPOCH><BSTAR>.11129E-2</BSTAR><MEAN_MOTION_DOT>.3503E-4</MEAN_MOTION_DOT><MEAN_MOTION_DDOT>0</MEAN_MOTION_DDOT></tleParameters></data></segment></body></omm>
<omm id="CCSDS_OMM_VERS" version="2.0">
<header><CREATION_DATE/><ORIGINATOR/></header><body><segment><metadata><OBJECT_NAME>ORBCOMM FM03 [-]</OBJECT_NAME><OBJECT_ID>1998-007B</OBJECT_ID><CENTER_NAME>EARTH</CENTER_NAME><REF_FRAME>TEME</REF_FRAME><TIME_SYSTEM>UTC</TIME_SYSTEM><MEAN_ELEMENT_THEORY>SGP4</MEAN_ELEMENT_THEORY></metadata><data><meanElements><EPOCH>2023-10-18T21:02:50.623584</EPOCH><MEAN_MOTION>14.31368189</MEAN_MOTION><ECCENTRICITY>.0049675</ECCENTRICITY><INCLINATION>107.9808</INCLINATION><RA_OF_ASC_NODE>331.0241</RA_OF_ASC_NODE><ARG_OF_PERICENTER>229.7821</ARG_OF_PERICENTER><MEAN_ANOMALY>129.8965</MEAN_ANOMALY></meanElements><tleParameters><EPHEMERIS_TYPE>0</EPHEMERIS_TYPE><CLASSIFICATION_TYPE>U</CLASSIFICATION_TYPE><NORAD_CAT_ID>25158</NORAD_CAT_ID><ELEMENT_SET_NO>999</ELEMENT_SET_NO><REV_AT_EPOCH>33719</REV_AT_EPOCH><BSTAR>.68696E-3</BSTAR><MEAN_MOTION_DOT>.1717E-4</MEAN_MOTION_DOT><MEAN_MOTION_DDOT>0</MEAN_MOTION_DDOT></tleParameters></data></segment></body></omm>
<omm id="CCSDS_OMM_VERS" version="2.0">
<header><CREATION_DATE/><ORIGINATOR/></header><body><segment><metadata><OBJECT_NAME>ORBCOMM FM04 [+]</OBJECT_NAME><OBJECT_ID>1998-007C</OBJECT_ID><CENTER_NAME>EARTH</CENTER_NAME><REF_FRAME>TEME</REF_FRAME><TIME_SYSTEM>UTC</TIME_SYSTEM><MEAN_ELEMENT_THEORY>SGP4</MEAN_ELEMENT_THEORY></metadata><data><meanElements><EPOCH>2023-10-19T01:01:06.767616</EPOCH><MEAN_MOTION>14.31641947</MEAN_MOTION><ECCENTRICITY>.0045131</ECCENTRICITY><INCLINATION>107.9788</INCLINATION><RA_OF_ASC_NODE>334.1625</RA_OF_ASC_NODE><ARG_OF_PERICENTER>227.7030</ARG_OF_PERICENTER><MEAN_ANOMALY>132.0278</MEAN_ANOMALY></meanElements><tleParameters><EPHEMERIS_TYPE>0</EPHEMERIS_TYPE><CLASSIFICATION_TYPE>U</CLASSIFICATION_TYPE><NORAD_CAT_ID>25159</NORAD_CAT_ID><ELEMENT_SET_NO>999</ELEMENT_SET_NO><REV_AT_EPOCH>33724</REV_AT_EPOCH><BSTAR>.68085E-3</BSTAR><MEAN_MOTION_DOT>.1706E-4</MEAN_MOTION_DOT><MEAN_MOTION_DDOT>0</MEAN_MOTION_DDOT></tleParameters></data></segment></body></omm>
<omm id="CCSDS_OMM_VERS" version="2.0">
<header><CREATION_DATE/><ORIGINATOR/></header><body><segment><metadata><OBJECT_NAME>ORBCOMM FM17 [-]</OBJECT_NAME><OBJECT_ID>1998-046A</OBJECT_ID><CENTER_NAME>EARTH</CENTER_NAME><REF_FRAME>TEME</REF_FRAME><TIME_SYSTEM>UTC</TIME_SYSTEM><MEAN_ELEMENT_THEORY>SGP4</MEAN_ELEMENT_THEORY></metadata><data><meanElements><EPOCH>2023-10-19T04:32:24.681984</EPOCH><MEAN_MOTION>14.32432161</MEAN_MOTION><ECCENTRICITY>.0002448</ECCENTRICITY><INCLINATION>44.9941</INCLINATION><RA_OF_ASC_NODE>235.8279</RA_OF_ASC_NODE><ARG_OF_PERICENTER>7.4763</ARG_OF_PERICENTER><MEAN_ANOMALY>352.6119</MEAN_ANOMALY></meanElements><tleParameters><EPHEMERIS_TYPE>0</EPHEMERIS_TYPE><CLASSIFICATION_TYPE>U</CLASSIFICATION_TYPE><NORAD_CAT_ID>25413</NORAD_CAT_ID><ELEMENT_SET_NO>999</ELEMENT_SET_NO><REV_AT_EPOCH>31606</REV_AT_EPOCH><BSTAR>.80319E-3</BSTAR><MEAN_MOTION_DOT>.2053E-4</MEAN_MOTION_DOT><MEAN_MOTION_DDOT>0</MEAN_MOTION_DDOT></tleParameters></data></segment></body></omm>
<omm id="CCSDS_OMM_VERS" version="2.0">
<header><CREATION_DATE/><ORIGINATOR/></header><body><segment><metadata><OBJECT_NAME>ORBCOMM FM18 [-]</OBJECT_NAME><OBJECT_ID>1998-046B</OBJECT_ID><CENTER_NAME>EARTH</CENTER_NAME><REF_FRAME>TEME</REF_FRAME><TIME_SYSTEM>UTC</TIME_SYSTEM><MEAN_ELEMENT_THEORY>SGP4</MEAN_ELEMENT_THEORY></metadata><data><meanElements><EPOCH>2023-10-18T22:23:17.975616</EPOCH><MEAN_MOTION>14.34950355</MEAN_MOTION><ECCENTRICITY>.0004085</ECCENTRICITY><INCLINATION>44.9927</INCLINATION><RA_OF_ASC_NODE>168.2741</RA_OF_ASC_NODE><ARG_OF_PERICENTER>97.1460</ARG_OF_PERICENTER><MEAN_ANOMALY>262.9851</MEAN_ANOMALY></meanElements><tleParameters><EPHEMERIS_TYPE>0</EPHEMERIS_TYPE><CLASSIFICATION_TYPE>U</CLASSIFICATION_TYPE><NORAD_CAT_ID>25414</NORAD_CAT_ID><ELEMENT_SET_NO>999</ELEMENT_SET_NO><REV_AT_EPOCH>31692</REV_AT_EPOCH><BSTAR>.86181E-3</BSTAR><MEAN_MOTION_DOT>.2334E-4</MEAN_MOTION_DOT><MEAN_MOTION_DDOT>0</MEAN_MOTION_DDOT></tleParameters></data></segment></body></omm>
<omm id="CCSDS_OMM_VERS" version="2.0">
<header><CREATION_DATE/><ORIGINATOR/></header><body><segment><metadata><OBJECT_NAME>ORBCOMM FM19 [+]</OBJECT_NAME><OBJECT_ID>1998-046C</OBJECT_ID><CENTER_NAME>EARTH</CENTER_NAME><REF_FRAME>TEME</REF_FRAME><TIME_SYSTEM>UTC</TIME_SYSTEM><MEAN_ELEMENT_THEORY>SGP4</MEAN_ELEMENT_THEORY></metadata><data><meanElements><EPOCH>2023-10-19T02:47:57.430752</EPOCH><MEAN_MOTION>14.34818211</MEAN_MOTION><ECCENTRICITY>.0003077</ECCENTRICITY><INCLINATION>44.9935</INCLINATION><RA_OF_ASC_NODE>168.5621</RA_OF_ASC_NODE><ARG_OF_PERICENTER>84.3226</ARG_OF_PERICENTER><MEAN_ANOMALY>74.9273</MEAN_ANOMALY></meanElements><tleParameters><EPHEMERIS_TYPE>0</EPHEMERIS_TYPE><CLASSIFICATION_TYPE>U</CLASSIFICATION_TYPE><NORAD_CAT_ID>25415</NORAD_CAT_ID><ELEMENT_SET_NO>999</ELEMENT_SET_NO><REV_AT_EPOCH>31691</REV_AT_EPOCH><BSTAR>.75145E-3</BSTAR><MEAN_MOTION_DOT>.2011E-4</MEAN_MOTION_DOT><MEAN_MOTION_DDOT>0</MEAN_MOTION_DDOT></tleParameters></data></segment></body></omm>

</ndm>
