ORBCOMM FM05 [-]        
1 25117U 97084F   23292.31249156  .00003233  00000+0  10282-2 0  9998
2 25117  45.0170  31.0074 0000874  77.2377 282.8571 14.41575153352911
ORBCOMM FM06 [+]        
1 25118U 97084G   23292.43175896  .00003694  00000+0  11698-2 0  9994
2 25118  45.0164  30.5989 0000737 153.9834 328.3956 14.41521820353840
ORBCOMM FM07 [-]        
1 25119U 97084H   23292.32074706  .00003503  00000+0  11129-2 0  9999
2 25119  45.0161  31.5681 0001342  36.4357 323.6584 14.41465586353825
ORBCOMM FM03 [-]        
1 25158U 98007B   23291.87697481  .00001717  00000+0  68696-3 0  9995
2 25158 107.9808 331.0241 0049675 229.7821 129.8965 14.31368189337199
ORBCOMM FM04 [+]        
1 25159U 98007C   23292.04243944  .00001706  00000+0  68085-3 0  9997
2 25159 107.9788 334.1625 0045131 227.7030 132.0278 14.31641947337245
ORBCOMM FM17 [-]        
1 25413U 98046A   23292.18917456  .00002053  00000+0  80319-3 0  9994
2 25413  44.9941 235.8279 0002448   7.4763 352.6119 14.32432161316069
ORBCOMM FM18 [-]        
1 25414U 98046B   23291.93284694  .00002334  00000+0  86181-3 0  9993
2 25414  44.9927 168.2741 0004085  97.1460 262.9851 14.34950355316929
ORBCOMM FM19 [+]        
1 25415U 98046C   23292.11663693  .00002011  00000+0  75145-3 0  9995
2 25415  44.9935 168.5621 0003077  84.3226  74.9273 14.34818211316919
